*******************************************************************************
 Revised: Jul 31, 2013              Venus                               299 / 2
 
 GEOPHYSICAL DATA (updated 2014-Mar-13):
  Mean radius (km)      =   6051.8(4+-1)  Density (g cm^-3)     =  5.204 
  Mass (10^23 kg )      =     48.685      Flattening, f         =  
  Volume (x10^10 km^3)  =     92.843      Semi-major axis       =  
  Sidereal rot. period  =   -243.0185 d   Rot. Rate (x10^5 s)   = -0.029924 
  Mean solar day        =    116.7490 d   Polar gravity ms^-2   =   
  Mom. of Inertia       =      0.33       Equ. gravity  ms^-2   =  8.870 
  Core radius (km)      =  ~3200          Potential Love # k2   = ~0.25 

  Grav spectral fact u  =      1.5        Topo. spectral fact t =  23       
  Fig. offset (Rcf-Rcm) =      0.19+-01   Offset (lat./long.)   = 11/102 dg/dg 
  GM (km^3 s^-2)        = 324858.63       Equatorial Radius, Re = 6051.893 km 
  GM 1-sigma (km^3 s^-2)=    +-0.04       Mass ratio (Sun/Venus)= 408523.72
  
  Atmos. pressure (bar) =    90           Max. angular diam.    =   60.2" 
  Mean Temperature (K)  =  735            Visual mag. V(1,0)    =   -4.40 
  Geometric albedo      =    0.65         Obliquity to orbit    =  177.3 deg 
  Sidereal orb. per.    =    0.61519726 y Orbit vel.  km/s      =   35.0214 
  Sidereal orb. per.    =  224.70079922 d Escape vel. km/s      =   10.361 
  Hill's sphere rad. Rp =  167.1          Planetary Solar Const = 2613.9 (Wm^2) 
*******************************************************************************
 
 
*******************************************************************************
Ephemeris / WWW_USER Sun Jul 15 22:25:51 2018 Pasadena, USA      / Horizons    
*******************************************************************************
Target body name: Venus (299)                     {source: DE431mx}
Center body name: Solar System Barycenter (0)     {source: DE431mx}
Center-site name: BODY CENTER
*******************************************************************************
Start time      : A.D. 2017-Jan-01 00:00:00.0000 TDB
Stop  time      : A.D. 2020-Jan-01 00:00:00.0000 TDB
Step-size       : 1440 minutes
*******************************************************************************
Center geodetic : 0.00000000,0.00000000,0.0000000 {E-lon(deg),Lat(deg),Alt(km)}
Center cylindric: 0.00000000,0.00000000,0.0000000 {E-lon(deg),Dxy(km),Dz(km)}
Center radii    : (undefined)                                                  
Output units    : AU-D                                                         
Output type     : GEOMETRIC cartesian states
Output format   : 3 (position, velocity, LT, range, range-rate)
Reference frame : ICRF/J2000.0                                                 
Coordinate systm: Ecliptic and Mean Equinox of Reference Epoch                 
*******************************************************************************
JDTDB
   X     Y     Z
   VX    VY    VZ
   LT    RG    RR
*******************************************************************************
$$SOE
2458444.500000000 = A.D. 2018-Nov-22 00:00:00.0000 TDB 
 X = 1.831662905457381E-01 Y = 7.041565127484040E-01 Z =-1.099934430556610E-03
 VX=-1.963411201331203E-02 VY= 5.058323147242525E-03 VZ= 1.202162518509011E-03
 LT= 4.202210518656282E-03 RG= 7.275901966725710E-01 RR=-4.917407907625177E-05
2458445.500000000 = A.D. 2018-Nov-23 00:00:00.0000 TDB 
 X = 1.634621583563545E-01 Y = 7.089386121268043E-01 Z = 1.024788584331210E-04
 VX=-1.977156638723698E-02 VY= 4.505202299739684E-03 VZ= 1.202505584382405E-03
 LT= 4.201918193099724E-03 RG= 7.275395820714593E-01 RR=-5.204915244391791E-05
2458446.500000000 = A.D. 2018-Nov-24 00:00:00.0000 TDB 
 X = 1.436283498560582E-01 Y = 7.131656440767008E-01 Z = 1.304759633299082E-03
 VX=-1.989344492527016E-02 VY= 3.948261770112309E-03 VZ= 1.201897361479960E-03
 LT= 4.201609367856389E-03 RG= 7.274861106381415E-01 RR=-5.488741511190290E-05
2458447.500000000 = A.D. 2018-Nov-25 00:00:00.0000 TDB 
 X = 1.236804979106972E-01 Y = 7.168340099943803E-01 Z = 2.505956348840584E-03
 VX=-1.999963567186230E-02 VY= 3.387944341694986E-03 VZ= 1.200337466974843E-03
 LT= 4.201284261196871E-03 RG= 7.274298201649996E-01 RR=-5.768690720961474E-05
2458448.500000000 = A.D. 2018-Nov-26 00:00:00.0000 TDB 
 X = 1.036343410055476E-01 Y = 7.199405558773702E-01 Z = 3.705117467578109E-03
 VX=-2.009003936636388E-02 VY= 2.824696371811676E-03 VZ= 1.197826299590873E-03
 LT= 4.200943102649204E-03 RG= 7.273707503935797E-01 RR=-6.044569049856925E-05
2458449.500000000 = A.D. 2018-Nov-27 00:00:00.0000 TDB 
 X = 8.350571048438298E-02 Y = 7.224825757120066E-01 Z = 4.901292242537939E-03
 VX=-2.016456957325227E-02 VY= 2.258967417972923E-03 VZ= 1.194365041956847E-03
 LT= 4.200586132870200E-03 RG= 7.273089429923185E-01 RR=-6.316184967521785E-05
2458450.500000000 = A.D. 2018-Nov-28 00:00:00.0000 TDB 
 X = 6.331051766375968E-02 Y = 7.244578144844031E-01 Z = 6.093531502059180E-03
 VX=-2.022315280109228E-02 VY= 1.691209858617832E-03 VZ= 1.189955662245219E-03
 LT= 4.200213603509074E-03 RG= 7.272444415329261E-01 RR=-6.583349362815351E-05
2458451.500000000 = A.D. 2018-Nov-29 00:00:00.0000 TDB 
 X = 4.306474083494431E-02 Y = 7.258644708096251E-01 Z = 7.280888435767288E-03
 VX=-2.026572860893897E-02 VY= 1.121878508670843E-03 VZ= 1.184600914969982E-03
 LT= 4.199825777064617E-03 RG= 7.271772914656591E-01 RR=-6.845875668515263E-05
2458452.500000000 = A.D. 2018-Nov-30 00:00:00.0000 TDB 
 X = 2.278441216455513E-02 Y = 7.267011991738802E-01 Z = 8.462419381088477E-03
 VX=-2.029224970175418E-02 VY= 5.514302302659399E-04 VZ= 1.178304341159722E-03
 LT= 4.199422926733689E-03 RG= 7.271075400930878E-01 RR=-7.103580009057195E-05
2458453.500000000 = A.D. 2018-Dec-01 00:00:00.0000 TDB 
 X = 2.485604506499647E-03 Y = 7.269671117852790E-01 Z = 9.637184609474617E-03
 VX=-2.030268201270397E-02 VY=-1.967646090210815E-05 VZ= 1.171070267663281E-03
 LT= 4.199005336251766E-03 RG= 7.270352365424870E-01 RR=-7.356281347679147E-05
2458454.500000000 = A.D. 2018-Dec-02 00:00:00.0000 TDB 
 X =-1.781558186229935E-02 Y = 7.266617800287909E-01 Z = 1.080424911158243E-02
 VX=-2.029700477324058E-02 VY=-5.909817934398097E-04 VZ= 1.162903805747901E-03
 LT= 4.198573299723707E-03 RG= 7.269604317365342E-01 RR=-7.603801674085765E-05
2458455.500000000 = A.D. 2018-Dec-03 00:00:00.0000 TDB 
 X =-3.810303257004758E-02 Y = 7.257852355214792E-01 Z = 1.196268338068579E-02
 VX=-2.027521057072091E-02 VY=-1.162025141738720E-03 VZ= 1.153810848961201E-03
 LT= 4.198127121443023E-03 RG= 7.268831783620183E-01 RR=-7.845966211401070E-05
2458456.500000000 = A.D. 2018-Dec-04 00:00:00.0000 TDB 
 X =-5.836063252951332E-02 Y = 7.243379707646790E-01 Z = 1.311156419357098E-02
 VX=-2.023730539333135E-02 VY=-1.732345430511870E-03 VZ= 1.143798070233079E-03
 LT= 4.197667115699087E-03 RG= 7.268035308364565E-01 RR=-8.082603625044514E-05
2458457.500000000 = A.D. 2018-Dec-05 00:00:00.0000 TDB 
 X =-7.857227935595062E-02 Y = 7.223209393903407E-01 Z = 1.424997538814608E-02
 VX=-2.018330866210788E-02 VY=-2.301481541836379E-03 VZ= 1.132872918198376E-03
 LT= 4.197193606572522E-03 RG= 7.267215452726694E-01 RR=-8.313546220426422E-05
2458458.500000000 = A.D. 2018-Dec-06 00:00:00.0000 TDB 
 X =-9.872189681050909E-02 Y = 7.197355559992979E-01 Z = 1.537700863697678E-02
 VX=-2.011325324985842E-02 VY=-2.868972724178335E-03 VZ= 1.121043612725873E-03
 LT= 4.196706927719732E-03 RG= 7.266372794414728E-01 RR=-8.538630120867555E-05
2458459.500000000 = A.D. 2018-Dec-07 00:00:00.0000 TDB 
 X =-1.187934482559437E-01 Y = 7.165836955897283E-01 Z = 1.649176421595059E-02
 VX=-2.002718548681306E-02 VY=-3.434359002898580E-03 VZ= 1.108319139643952E-03
 LT= 4.196207422147828E-03 RG= 7.265507927327068E-01 RR=-8.757695421767878E-05
2458460.500000000 = A.D. 2018-Dec-08 00:00:00.0000 TDB 
 X =-1.387709501112733E-01 Y = 7.128676925745695E-01 Z = 1.759335176726244E-02
 VX=-1.992516515284633E-02 VY=-3.997181591760602E-03 VZ= 1.094709244657947E-03
 LT= 4.195695441981335E-03 RG= 7.264621461148427E-01 RR=-8.970586321639063E-05
2458461.500000000 = A.D. 2018-Dec-09 00:00:00.0000 TDB 
 X =-1.586384852918887E-01 Y = 7.085903393871162E-01 Z = 1.868089105591345E-02
 VX=-1.980726545613387E-02 VY=-4.556983304984305E-03 VZ= 1.080224426459015E-03
 LT= 4.195171348221882E-03 RG= 7.263714020933756E-01 RR=-9.177151235042103E-05
2458462.500000000 = A.D. 2018-Dec-10 00:00:00.0000 TDB 
 X =-1.783802166214854E-01 Y = 7.037548846744727E-01 Z = 1.975351271891567E-02
 VX=-1.967357299812477E-02 VY=-5.113308969411961E-03 VZ= 1.064875929029031E-03
 LT= 4.194635510501691E-03 RG= 7.262786246681399E-01 RR=-9.377242896599999E-05
2458463.500000000 = A.D. 2018-Dec-11 00:00:00.0000 TDB 
 X =-1.979804002020823E-01 Y = 6.983650310789559E-01 Z = 2.081035900640404E-02
 VX=-1.952418772472886E-02 VY=-5.665705836375252E-03 VZ= 1.048675733150797E-03
 LT= 4.194088306830998E-03 RG= 7.261838792895798E-01 RR=-9.570718468970091E-05
2458464.500000000 = A.D. 2018-Dec-12 00:00:00.0000 TDB 
 X =-2.174233987283019E-01 Y = 6.924249326079429E-01 Z = 2.185058451386582E-02
 VX=-1.935922286363712E-02 VY=-6.213723992874837E-03 VZ= 1.031636547137592E-03
 LT= 4.193530123338768E-03 RG= 7.260872328138528E-01 RR=-9.757439670809726E-05
2458465.500000000 = A.D. 2018-Dec-13 00:00:00.0000 TDB 
 X =-2.366936947323381E-01 Y = 6.859391915932274E-01 Z = 2.287335690473383E-02
 VX=-1.917880484863974E-02 VY=-6.756916771141669E-03 VZ= 1.013771796841411E-03
 LT= 4.192961354006637E-03 RG= 7.259887534567646E-01 RR=-9.937272858842528E-05
2458466.500000000 = A.D. 2018-Dec-14 00:00:00.0000 TDB 
 X =-2.557759037461960E-01 Y = 6.789128552416712E-01 Z = 2.387785762258222E-02
 VX=-1.898307322928718E-02 VY=-7.294841156678816E-03 VZ= 9.950956148218010E-04
 LT= 4.192382400397719E-03 RG= 7.258885107468132E-01 RR=-1.011008916879623E-04
